*******************************************************************************
Ephemeris / WWW_USER Mon Mar 24 09:24:24 2025 Pasadena, USA      / Horizons    
*******************************************************************************
Target body name: (2017 UW51)                     {source: JPL#9}
Center body name: Earth (399)                     {source: DE441}
Center-site name: Mauna Kea
*******************************************************************************
Start time      : A.D. 2018-Oct-27 04:00:00.0000 UT      
Stop  time      : A.D. 2018-Oct-27 16:11:00.0000 UT      
Step-size       : 1 minutes
*******************************************************************************
Target pole/equ : undefined
Target radii    : undefined                                                    
Center geodetic : 204.5278, 19.8260847, 4.21024   {E-lon(deg),Lat(deg),Alt(km)}
Center cylindric: 204.5278, 6006.35451, 2151.0229 {E-lon(deg),Dxy(km),Dz(km)}
Center pole/equ : ITRF93                          {East-longitude positive}
Center radii    : 6378.137, 6378.137, 6356.752 km {Equator_a, b, pole_c}       
Target primary  : Sun
Vis. interferer : MOON (R_eq= 1737.400) km        {source: DE441}
Rel. light bend : Sun                             {source: DE441}
Rel. lght bnd GM: 1.3271E+11 km^3/s^2                                          
Small-body perts: Yes                             {source: SB441-N16}
Atmos refraction: NO (AIRLESS)
RA format       : HMS
Time format     : CAL 
Calendar mode   : Mixed Julian/Gregorian
RTS-only print  : NO       
EOP file        : eop.250321.p250617                                           
EOP coverage    : DATA-BASED 1962-JAN-20 TO 2025-MAR-21. PREDICTS-> 2025-JUN-16
Units conversion: 1 au= 149597870.700 km, c= 299792.458 km/s, 1 day= 86400.0 s 
Table cut-offs 1: Elevation (-90.0deg=NO ),Airmass (>38.000=NO), Daylight (YES)
Table cut-offs 2: Solar elongation (  0.0,180.0=NO ),Local Hour Angle( 0.0=NO )
Table cut-offs 3: RA/DEC angular rate (     0.0=NO )                           
*******************************************************************************
Initial IAU76/J2000 heliocentric ecliptic osculating elements (au, days, deg.):
  EPOCH=  2458075.5 ! 2017-Nov-18.00 (TDB)         Residual RMS= .20188        
   EC= .977323227404683    QR= 3.132710376610715   TP= 2458155.1551369466      
   OM= 241.7154477774366   W=  216.6888678209022   IN= 144.2025603349357       
  Equivalent ICRF heliocentric cartesian coordinates (au, au/d):
   X= 2.139353138138251E+00  Y= 2.375029509283225E+00  Z= 4.232007070438896E-01
  VX= 5.707101564767909E-03 VY=-6.350221743649190E-03 VZ=-1.041670648532765E-02
Asteroid physical parameters (km, seconds, rotational period in hours):        
   GM= n.a.                RAD= n.a.               ROTPER= n.a.                
   H= 15.3                 G= .150                 B-V= n.a.                   
                           ALBEDO= n.a.            STYP= n.a.                  
*******************************************************************************
 Date__(UT)__HR:MN     R.A._________(ICRF)_________DEC
******************************************************
$$SOE
 2018-Oct-27 06:03  e  22 01 01.133733 -53 28 57.85280
 2018-Oct-27 06:04  m  22 01 01.066618 -53 28 57.58667
 2018-Oct-27 06:05  m  22 01 00.999505 -53 28 57.32051
 2018-Oct-27 06:06  m  22 01 00.932394 -53 28 57.05431
 2018-Oct-27 06:07  m  22 01 00.865284 -53 28 56.78807
 2018-Oct-27 06:08  m  22 01 00.798176 -53 28 56.52180
 2018-Oct-27 06:09  m  22 01 00.731069 -53 28 56.25548
 2018-Oct-27 06:10  m  22 01 00.663964 -53 28 55.98913
 2018-Oct-27 06:11  m  22 01 00.596861 -53 28 55.72274
 2018-Oct-27 06:12  m  22 01 00.529759 -53 28 55.45631
 2018-Oct-27 06:13  m  22 01 00.462660 -53 28 55.18985
 2018-Oct-27 06:14  m  22 01 00.395562 -53 28 54.92335
 2018-Oct-27 06:15  m  22 01 00.328465 -53 28 54.65680
 2018-Oct-27 06:16  m  22 01 00.261371 -53 28 54.39022
 2018-Oct-27 06:17  m  22 01 00.194278 -53 28 54.12361
 2018-Oct-27 06:18  m  22 01 00.127187 -53 28 53.85695
 2018-Oct-27 06:19  m  22 01 00.060098 -53 28 53.59026
 2018-Oct-27 06:20  m  22 00 59.993011 -53 28 53.32353
 2018-Oct-27 06:21  m  22 00 59.925926 -53 28 53.05676
 2018-Oct-27 06:22  m  22 00 59.858842 -53 28 52.78995
 2018-Oct-27 06:23  m  22 00 59.791761 -53 28 52.52310
 2018-Oct-27 06:24  m  22 00 59.724681 -53 28 52.25622
 2018-Oct-27 06:25  m  22 00 59.657604 -53 28 51.98930
 2018-Oct-27 06:26  m  22 00 59.590528 -53 28 51.72234
 2018-Oct-27 06:27  m  22 00 59.523454 -53 28 51.45534
 2018-Oct-27 06:28  m  22 00 59.456383 -53 28 51.18831
 2018-Oct-27 06:29  m  22 00 59.389313 -53 28 50.92124
 2018-Oct-27 06:30  m  22 00 59.322246 -53 28 50.65413
 2018-Oct-27 06:31  m  22 00 59.255181 -53 28 50.38698
 2018-Oct-27 06:32  m  22 00 59.188117 -53 28 50.11979
 2018-Oct-27 06:33  m  22 00 59.121056 -53 28 49.85257
 2018-Oct-27 06:34  m  22 00 59.053997 -53 28 49.58531
 2018-Oct-27 06:35  m  22 00 58.986941 -53 28 49.31801
 2018-Oct-27 06:36  m  22 00 58.919886 -53 28 49.05067
 2018-Oct-27 06:37  m  22 00 58.852834 -53 28 48.78330
 2018-Oct-27 06:38  m  22 00 58.785784 -53 28 48.51589
 2018-Oct-27 06:39  m  22 00 58.718736 -53 28 48.24844
 2018-Oct-27 06:40  m  22 00 58.651690 -53 28 47.98095
 2018-Oct-27 06:41  m  22 00 58.584647 -53 28 47.71343
 2018-Oct-27 06:42  m  22 00 58.517606 -53 28 47.44587
 2018-Oct-27 06:43  m  22 00 58.450567 -53 28 47.17827
 2018-Oct-27 06:44  m  22 00 58.383531 -53 28 46.91063
 2018-Oct-27 06:45  m  22 00 58.316497 -53 28 46.64296
 2018-Oct-27 06:46  m  22 00 58.249466 -53 28 46.37525
 2018-Oct-27 06:47  m  22 00 58.182436 -53 28 46.10750
 2018-Oct-27 06:48  m  22 00 58.115410 -53 28 45.83971
 2018-Oct-27 06:49  m  22 00 58.048386 -53 28 45.57189
 2018-Oct-27 06:50  m  22 00 57.981364 -53 28 45.30403
 2018-Oct-27 06:51  m  22 00 57.914345 -53 28 45.03613
 2018-Oct-27 06:52  m  22 00 57.847328 -53 28 44.76819
 2018-Oct-27 06:53  m  22 00 57.780314 -53 28 44.50022
 2018-Oct-27 06:54  m  22 00 57.713302 -53 28 44.23221
 2018-Oct-27 06:55  m  22 00 57.646293 -53 28 43.96416
 2018-Oct-27 06:56  m  22 00 57.579287 -53 28 43.69608
 2018-Oct-27 06:57  m  22 00 57.512283 -53 28 43.42796
 2018-Oct-27 06:58  m  22 00 57.445282 -53 28 43.15980
 2018-Oct-27 06:59  m  22 00 57.378283 -53 28 42.89161
 2018-Oct-27 07:00  m  22 00 57.311287 -53 28 42.62338
 2018-Oct-27 07:01  m  22 00 57.244294 -53 28 42.35511
 2018-Oct-27 07:02  m  22 00 57.177304 -53 28 42.08680
 2018-Oct-27 07:03  m  22 00 57.110316 -53 28 41.81846
 2018-Oct-27 07:04  m  22 00 57.043331 -53 28 41.55008
 2018-Oct-27 07:05  m  22 00 56.976349 -53 28 41.28166
 2018-Oct-27 07:06  m  22 00 56.909370 -53 28 41.01321
 2018-Oct-27 07:07  m  22 00 56.842393 -53 28 40.74472
 2018-Oct-27 07:08  m  22 00 56.775420 -53 28 40.47620
 2018-Oct-27 07:09  m  22 00 56.708449 -53 28 40.20763
 2018-Oct-27 07:10  m  22 00 56.641481 -53 28 39.93904
 2018-Oct-27 07:11  m  22 00 56.574516 -53 28 39.67040
 2018-Oct-27 07:12  m  22 00 56.507554 -53 28 39.40173
 2018-Oct-27 07:13  m  22 00 56.440595 -53 28 39.13302
 2018-Oct-27 07:14  m  22 00 56.373638 -53 28 38.86428
 2018-Oct-27 07:15  m  22 00 56.306685 -53 28 38.59549
 2018-Oct-27 07:16  m  22 00 56.239735 -53 28 38.32668
 2018-Oct-27 07:17  m  22 00 56.172788 -53 28 38.05782
 2018-Oct-27 07:18  m  22 00 56.105843 -53 28 37.78893
 2018-Oct-27 07:19  m  22 00 56.038902 -53 28 37.52001
 2018-Oct-27 07:20  m  22 00 55.971964 -53 28 37.25105
 2018-Oct-27 07:21  m  22 00 55.905029 -53 28 36.98205
 2018-Oct-27 07:22  m  22 00 55.838097 -53 28 36.71302
 2018-Oct-27 07:23  m  22 00 55.771169 -53 28 36.44395
 2018-Oct-27 07:24  m  22 00 55.704243 -53 28 36.17484
 2018-Oct-27 07:25  m  22 00 55.637321 -53 28 35.90570
 2018-Oct-27 07:26  m  22 00 55.570401 -53 28 35.63652
 2018-Oct-27 07:27  m  22 00 55.503485 -53 28 35.36731
 2018-Oct-27 07:28  m  22 00 55.436573 -53 28 35.09806
 2018-Oct-27 07:29  m  22 00 55.369663 -53 28 34.82878
 2018-Oct-27 07:30  m  22 00 55.302757 -53 28 34.55946
 2018-Oct-27 07:31  m  22 00 55.235854 -53 28 34.29011
 2018-Oct-27 07:32  m  22 00 55.168954 -53 28 34.02072
 2018-Oct-27 07:33  m  22 00 55.102058 -53 28 33.75129
 2018-Oct-27 07:34  m  22 00 55.035165 -53 28 33.48183
 2018-Oct-27 07:35  m  22 00 54.968275 -53 28 33.21233
 2018-Oct-27 07:36  m  22 00 54.901389 -53 28 32.94280
 2018-Oct-27 07:37  m  22 00 54.834506 -53 28 32.67324
 2018-Oct-27 07:38  m  22 00 54.767627 -53 28 32.40363
 2018-Oct-27 07:39  m  22 00 54.700751 -53 28 32.13400
 2018-Oct-27 07:40  m  22 00 54.633878 -53 28 31.86433
 2018-Oct-27 07:41  m  22 00 54.567009 -53 28 31.59462
 2018-Oct-27 07:42  m  22 00 54.500144 -53 28 31.32488
 2018-Oct-27 07:43  m  22 00 54.433282 -53 28 31.05510
 2018-Oct-27 07:44  m  22 00 54.366423 -53 28 30.78529
 2018-Oct-27 07:45  m  22 00 54.299568 -53 28 30.51545
 2018-Oct-27 07:46  m  22 00 54.232717 -53 28 30.24557
 2018-Oct-27 07:47  m  22 00 54.165869 -53 28 29.97565
 2018-Oct-27 07:48  m  22 00 54.099025 -53 28 29.70571
 2018-Oct-27 07:49  m  22 00 54.032185 -53 28 29.43572
 2018-Oct-27 07:50  m  22 00 53.965348 -53 28 29.16571
 2018-Oct-27 07:51  m  22 00 53.898514 -53 28 28.89565
 2018-Oct-27 07:52  m  22 00 53.831685 -53 28 28.62557
 2018-Oct-27 07:53  m  22 00 53.764859 -53 28 28.35545
 2018-Oct-27 07:54  m  22 00 53.698037 -53 28 28.08530
 2018-Oct-27 07:55  m  22 00 53.631218 -53 28 27.81511
 2018-Oct-27 07:56  m  22 00 53.564404 -53 28 27.54489
 2018-Oct-27 07:57  m  22 00 53.497593 -53 28 27.27463
 2018-Oct-27 07:58  m  22 00 53.430786 -53 28 27.00434
 2018-Oct-27 07:59  m  22 00 53.363982 -53 28 26.73402
 2018-Oct-27 08:00  m  22 00 53.297183 -53 28 26.46366
 2018-Oct-27 08:01  m  22 00 53.230387 -53 28 26.19328
 2018-Oct-27 08:02  m  22 00 53.163596 -53 28 25.92285
 2018-Oct-27 08:03  m  22 00 53.096808 -53 28 25.65240
 2018-Oct-27 08:04  m  22 00 53.030024 -53 28 25.38191
 2018-Oct-27 08:05  m  22 00 52.963244 -53 28 25.11138
